CCSDS_OMM_VERS = 2.0
CREATION_DATE  = 
ORIGINATOR     = 

OBJECT_NAME    = STARLINK-36616
OBJECT_ID      = 2026-022AA
CENTER_NAME    = EARTH
REF_FRAME      = TEME
TIME_SYSTEM    = UTC
MEAN_ELEMENT_THEORY = SGP/SGP4

EPOCH          = 2026-02-21T21:05:36.594528
MEAN_MOTION    = 15.75180916
ECCENTRICITY   = .00010278
INCLINATION    = 97.2847
RA_OF_ASC_NODE = 86.1283
ARG_OF_PERICENTER = 125.1217
MEAN_ANOMALY   = 235.0144

EPHEMERIS_TYPE = 0
CLASSIFICATION_TYPE = U
NORAD_CAT_ID   = 67672
ELEMENT_SET_NO = 999
REV_AT_EPOCH   = 306
BSTAR          = .71040056E-3
MEAN_MOTION_DOT = .107126E-2
MEAN_MOTION_DDOT = 0

CCSDS_OMM_VERS = 2.0
CREATION_DATE  = 
ORIGINATOR     = 

OBJECT_NAME    = COSMOS 2600
OBJECT_ID      = 2026-023A
CENTER_NAME    = EARTH
REF_FRAME      = TEME
TIME_SYSTEM    = UTC
MEAN_ELEMENT_THEORY = SGP/SGP4

EPOCH          = 2026-02-21T23:24:05.914944
MEAN_MOTION    = 15.83144733
ECCENTRICITY   = .0001782
INCLINATION    = 96.6460
RA_OF_ASC_NODE = 129.1091
ARG_OF_PERICENTER = 56.2424
MEAN_ANOMALY   = 303.9016

EPHEMERIS_TYPE = 0
CLASSIFICATION_TYPE = U
NORAD_CAT_ID   = 67674
ELEMENT_SET_NO = 999
REV_AT_EPOCH   = 256
BSTAR          = .22228362E-3
MEAN_MOTION_DOT = .47536E-3
MEAN_MOTION_DDOT = 0

CCSDS_OMM_VERS = 2.0
CREATION_DATE  = 
ORIGINATOR     = 

OBJECT_NAME    = 2026-023B
OBJECT_ID      = 2026-023B
CENTER_NAME    = EARTH
REF_FRAME      = TEME
TIME_SYSTEM    = UTC
MEAN_ELEMENT_THEORY = SGP/SGP4

EPOCH          = 2026-02-21T22:46:57.704736
MEAN_MOTION    = 15.22566864
ECCENTRICITY   = .00182757
INCLINATION    = 96.6382
RA_OF_ASC_NODE = 127.7216
ARG_OF_PERICENTER = 186.1824
MEAN_ANOMALY   = 173.9192

EPHEMERIS_TYPE = 0
CLASSIFICATION_TYPE = U
NORAD_CAT_ID   = 67675
ELEMENT_SET_NO = 999
REV_AT_EPOCH   = 246
BSTAR          = .42204186E-3
MEAN_MOTION_DOT = .9788E-4
MEAN_MOTION_DDOT = 0

CCSDS_OMM_VERS = 2.0
CREATION_DATE  = 
ORIGINATOR     = 

OBJECT_NAME    = 2026-023C
OBJECT_ID      = 2026-023C
CENTER_NAME    = EARTH
REF_FRAME      = TEME
TIME_SYSTEM    = UTC
MEAN_ELEMENT_THEORY = SGP/SGP4

EPOCH          = 2026-02-21T22:45:59.416704
MEAN_MOTION    = 15.22650858
ECCENTRICITY   = .00194592
INCLINATION    = 96.6417
RA_OF_ASC_NODE = 127.7383
ARG_OF_PERICENTER = 176.2211
MEAN_ANOMALY   = 183.9178

EPHEMERIS_TYPE = 0
CLASSIFICATION_TYPE = U
NORAD_CAT_ID   = 67676
ELEMENT_SET_NO = 999
REV_AT_EPOCH   = 262
BSTAR          = .52919247E-3
MEAN_MOTION_DOT = .1233E-3
MEAN_MOTION_DDOT = 0

CCSDS_OMM_VERS = 2.0
CREATION_DATE  = 
ORIGINATOR     = 

OBJECT_NAME    = 2026-023D
OBJECT_ID      = 2026-023D
CENTER_NAME    = EARTH
REF_FRAME      = TEME
TIME_SYSTEM    = UTC
MEAN_ELEMENT_THEORY = SGP/SGP4

EPOCH          = 2026-02-21T22:47:52.793376
MEAN_MOTION    = 15.22497965
ECCENTRICITY   = .00196008
INCLINATION    = 96.6448
RA_OF_ASC_NODE = 127.7237
ARG_OF_PERICENTER = 181.2901
MEAN_ANOMALY   = 178.8290

EPHEMERIS_TYPE = 0
CLASSIFICATION_TYPE = U
NORAD_CAT_ID   = 67677
ELEMENT_SET_NO = 999
REV_AT_EPOCH   = 245
BSTAR          = .43695145E-3
MEAN_MOTION_DOT = .10122E-3
MEAN_MOTION_DDOT = 0

CCSDS_OMM_VERS = 2.0
CREATION_DATE  = 
ORIGINATOR     = 

OBJECT_NAME    = 2026-023E
OBJECT_ID      = 2026-023E
CENTER_NAME    = EARTH
REF_FRAME      = TEME
TIME_SYSTEM    = UTC
MEAN_ELEMENT_THEORY = SGP/SGP4

EPOCH          = 2026-02-21T22:46:24.197952
MEAN_MOTION    = 15.22625764
ECCENTRICITY   = .00194274
INCLINATION    = 96.6341
RA_OF_ASC_NODE = 127.7183
ARG_OF_PERICENTER = 180.7134
MEAN_ANOMALY   = 179.4080

EPHEMERIS_TYPE = 0
CLASSIFICATION_TYPE = U
NORAD_CAT_ID   = 67678
ELEMENT_SET_NO = 999
REV_AT_EPOCH   = 245
BSTAR          = .49534541E-3
MEAN_MOTION_DOT = .11527E-3
MEAN_MOTION_DDOT = 0

CCSDS_OMM_VERS = 2.0
CREATION_DATE  = 
ORIGINATOR     = 

OBJECT_NAME    = 2026-023F
OBJECT_ID      = 2026-023F
CENTER_NAME    = EARTH
REF_FRAME      = TEME
TIME_SYSTEM    = UTC
MEAN_ELEMENT_THEORY = SGP/SGP4

EPOCH          = 2026-02-21T22:44:17.191680
MEAN_MOTION    = 15.22763692
ECCENTRICITY   = .00213509
INCLINATION    = 96.6350
RA_OF_ASC_NODE = 130.2163
ARG_OF_PERICENTER = 175.4696
MEAN_ANOMALY   = 184.6740

EPHEMERIS_TYPE = 0
CLASSIFICATION_TYPE = U
NORAD_CAT_ID   = 67679
ELEMENT_SET_NO = 999
REV_AT_EPOCH   = 244
BSTAR          = .49536343E-3
MEAN_MOTION_DOT = .11588E-3
MEAN_MOTION_DDOT = 0

CCSDS_OMM_VERS = 2.0
CREATION_DATE  = 
ORIGINATOR     = 

OBJECT_NAME    = 2026-023G
OBJECT_ID      = 2026-023G
CENTER_NAME    = EARTH
REF_FRAME      = TEME
TIME_SYSTEM    = UTC
MEAN_ELEMENT_THEORY = SGP/SGP4

EPOCH          = 2026-02-21T22:44:51.313632
MEAN_MOTION    = 15.22725061
ECCENTRICITY   = .00229812
INCLINATION    = 96.6277
RA_OF_ASC_NODE = 130.2089
ARG_OF_PERICENTER = 172.0276
MEAN_ANOMALY   = 188.1332

EPHEMERIS_TYPE = 0
CLASSIFICATION_TYPE = U
NORAD_CAT_ID   = 67680
ELEMENT_SET_NO = 999
REV_AT_EPOCH   = 244
BSTAR          = .5239388E-3
MEAN_MOTION_DOT = .12259E-3
MEAN_MOTION_DDOT = 0

CCSDS_OMM_VERS = 2.0
CREATION_DATE  = 
ORIGINATOR     = 

OBJECT_NAME    = 2026-023H
OBJECT_ID      = 2026-023H
CENTER_NAME    = EARTH
REF_FRAME      = TEME
TIME_SYSTEM    = UTC
MEAN_ELEMENT_THEORY = SGP/SGP4

EPOCH          = 2026-02-22T01:53:52.238112
MEAN_MOTION    = 15.22710446
ECCENTRICITY   = .0023011
INCLINATION    = 96.6429
RA_OF_ASC_NODE = 130.3365
ARG_OF_PERICENTER = 171.1176
MEAN_ANOMALY   = 189.0475

EPHEMERIS_TYPE = 0
CLASSIFICATION_TYPE = U
NORAD_CAT_ID   = 67681
ELEMENT_SET_NO = 999
REV_AT_EPOCH   = 246
BSTAR          = .25876E-5
MEAN_MOTION_DOT = .2E-7
MEAN_MOTION_DDOT = 0

CCSDS_OMM_VERS = 2.0
CREATION_DATE  = 
ORIGINATOR     = 

OBJECT_NAME    = 2026-023J
OBJECT_ID      = 2026-023J
CENTER_NAME    = EARTH
REF_FRAME      = TEME
TIME_SYSTEM    = UTC
MEAN_ELEMENT_THEORY = SGP/SGP4

EPOCH          = 2026-02-21T22:43:51.874752
MEAN_MOTION    = 15.22789858
ECCENTRICITY   = .00231727
INCLINATION    = 96.6378
RA_OF_ASC_NODE = 130.2298
ARG_OF_PERICENTER = 168.2565
MEAN_ANOMALY   = 191.9220

EPHEMERIS_TYPE = 0
CLASSIFICATION_TYPE = U
NORAD_CAT_ID   = 67682
ELEMENT_SET_NO = 999
REV_AT_EPOCH   = 244
BSTAR          = .464322E-3
MEAN_MOTION_DOT = .10877E-3
MEAN_MOTION_DDOT = 0

CCSDS_OMM_VERS = 2.0
CREATION_DATE  = 
ORIGINATOR     = 

OBJECT_NAME    = ISS OBJECT XZ
OBJECT_ID      = 1998-067XZ
CENTER_NAME    = EARTH
REF_FRAME      = TEME
TIME_SYSTEM    = UTC
MEAN_ELEMENT_THEORY = SGP/SGP4

EPOCH          = 2026-02-21T11:48:31.702176
MEAN_MOTION    = 15.50458827
ECCENTRICITY   = .00100736
INCLINATION    = 51.6314
RA_OF_ASC_NODE = 152.2476
ARG_OF_PERICENTER = 132.3559
MEAN_ANOMALY   = 227.8285

EPHEMERIS_TYPE = 0
CLASSIFICATION_TYPE = U
NORAD_CAT_ID   = 67683
ELEMENT_SET_NO = 999
REV_AT_EPOCH   = 227
BSTAR          = .68048379E-3
MEAN_MOTION_DOT = .3928E-3
MEAN_MOTION_DDOT = 0

CCSDS_OMM_VERS = 2.0
CREATION_DATE  = 
ORIGINATOR     = 

OBJECT_NAME    = GXIBA-1
OBJECT_ID      = 1998-067YA
CENTER_NAME    = EARTH
REF_FRAME      = TEME
TIME_SYSTEM    = UTC
MEAN_ELEMENT_THEORY = SGP/SGP4

EPOCH          = 2026-02-21T11:36:49.944096
MEAN_MOTION    = 15.51722963
ECCENTRICITY   = .00117035
INCLINATION    = 51.6313
RA_OF_ASC_NODE = 152.1932
ARG_OF_PERICENTER = 125.0335
MEAN_ANOMALY   = 235.1755

EPHEMERIS_TYPE = 0
CLASSIFICATION_TYPE = U
NORAD_CAT_ID   = 67684
ELEMENT_SET_NO = 999
REV_AT_EPOCH   = 227
BSTAR          = .12030987E-2
MEAN_MOTION_DOT = .73407E-3
MEAN_MOTION_DDOT = 0

