STARLINK-36616          
1 67672U 26022AA  26052.87889577  .00107126  00000+0  71040-3 0  9995
2 67672  97.2847  86.1283 0001027 125.1217 235.0144 15.75180916  3065
COSMOS 2600             
1 67674U 26023A   26052.97506846  .00047536  00000+0  22228-3 0  9996
2 67674  96.6460 129.1091 0001782  56.2424 303.9016 15.83144733  2561
2026-023B               
1 67675U 26023B   26052.94927899  .00009788  00000+0  42204-3 0  9992
2 67675  96.6382 127.7216 0018275 186.1824 173.9192 15.22566864  2465
2026-023C               
1 67676U 26023C   26052.94860436  .00012330  00000+0  52919-3 0  9997
2 67676  96.6417 127.7383 0019459 176.2211 183.9178 15.22650858  2625
2026-023D               
1 67677U 26023D   26052.94991659  .00010122  00000+0  43695-3 0  9998
2 67677  96.6448 127.7237 0019600 181.2901 178.8290 15.22497965  2455
2026-023E               
1 67678U 26023E   26052.94889118  .00011527  00000+0  49535-3 0  9994
2 67678  96.6341 127.7183 0019427 180.7134 179.4080 15.22625764  2451
2026-023F               
1 67679U 26023F   26052.94742120  .00011588  00000+0  49536-3 0  9994
2 67679  96.6350 130.2163 0021350 175.4696 184.6740 15.22763692  2444
2026-023G               
1 67680U 26023G   26052.94781613  .00012259  00000+0  52394-3 0  9998
2 67680  96.6277 130.2089 0022981 172.0276 188.1332 15.22725061  2443
2026-023H               
1 67681U 26023H   26053.07907683  .00000002  00000+0  25876-5 0  9991
2 67681  96.6429 130.3365 0023011 171.1176 189.0475 15.22710446  2466
2026-023J               
1 67682U 26023J   26052.94712818  .00010877  00000+0  46432-3 0  9991
2 67682  96.6378 130.2298 0023172 168.2565 191.9220 15.22789858  2442
ISS OBJECT XZ           
1 67683U 98067XZ  26052.49203359  .00039280  00000+0  68048-3 0  9990
2 67683  51.6314 152.2476 0010073 132.3559 227.8285 15.50458827  2278
GXIBA-1                 
1 67684U 98067YA  26052.48391139  .00073407  00000+0  12031-2 0  9993
2 67684  51.6313 152.1932 0011703 125.0335 235.1755 15.51722963  2276
